THOR 5                  
1 32487U 08006A   17262.06782019 -.00000041  00000-0  00000-0 0  9995
2 32487   0.0280 237.6266 0002162 308.1676 196.0302  1.00272005 35286
KIZUNA (WINDS)          
1 32500U 08007A   17261.91160447 -.00000290  00000-0  00000-0 0  9996
2 32500   1.0264  89.7617 0002474  95.9859 283.4529  1.00271417 34884
AMC-14                  
1 32708U 08011A   17261.61229750  .00000078  00000-0  00000+0 0  9993
2 32708  19.2839  61.4389 0034373   1.6533 173.1021  1.00276136 36070
DIRECTV 11              
1 32729U 08013A   17262.53119086 -.00000157  00000-0  00000+0 0  9999
2 32729   0.0176 353.8357 0000080  68.9776  27.8580  1.00271811 34923
ICO G1                  
1 32763U 08016A   17262.10968800 -.00000201  00000-0  00000-0 0  9990
2 32763   3.8020 356.1467 0002730 187.8302 120.8751  1.00272273 34565
VINASAT-1               
1 32767U 08018A   17261.63976727 -.00000361  00000-0  00000+0 0  9996
2 32767   0.0143 196.2402 0001563   1.7328 162.0215  1.00269699 34584
STAR ONE C2             
1 32768U 08018B   17262.19911499 -.00000297  00000-0  00000+0 0  9992
2 32768   0.0264 168.5085 0002756  33.8314 157.6500  1.00272478 34535
TIANLIAN 1-01           
1 32779U 08019A   17262.14964507 -.00000168  00000-0  10000-3 0  9990
2 32779   2.7424  75.5452 0033006 226.5622 190.0295  1.00272624 34450
AMOS-3                  
1 32794U 08022A   17262.03590895 -.00000067  00000-0  00000+0 0  9997
2 32794   0.0365 242.3475 0001723 309.8302 174.7929  1.00272374 34435
GALAXY 18 (G-18)        
1 32951U 08024A   17261.34874902 -.00000008  00000-0  00000-0 0  9997
2 32951   0.0188 227.7459 0002918 319.1146 173.1366  1.00273297 13888
CHINASAT 9 (ZX 9)       
1 33051U 08028A   17261.83105002 -.00000280  00000-0  00000-0 0  9997
2 33051   0.0104 264.3910 0003686 270.4551 214.4680  1.00270419 33994
SKYNET 5C               
1 33055U 08030A   17262.14443111 -.00000171  00000-0  00000-0 0  9994
2 33055   0.0605 353.6340 0003674 183.0029 215.7894  1.00271904 33945
TURKSAT 3A              
1 33056U 08030B   17261.96299222  .00000114  00000-0  00000-0 0  9992
2 33056   0.0543  88.0480 0004319  70.4557 228.2097  1.00270774 20330
INTELSAT 25 (IS-25)     
1 33153U 08034A   17262.09252929 -.00000256  00000-0  00000-0 0  9990
2 33153   0.0327 252.2865 0002439 291.2976 176.4157  1.00272202 33725
BADR-6                  
1 33154U 08034B   17262.40465969  .00000113  00000-0  00000+0 0  9996
2 33154   0.0627  33.6455 0002483 105.3361  31.1718  1.00271414 33732
ECHOSTAR 11             
1 33207U 08035A   17261.31269213 -.00000089  00000-0  00000-0 0  9993
2 33207   0.0229 243.5641 0002391 293.0634 183.3752  1.00271211 19236
SUPERBIRD-C2            
1 33274U 08038A   17262.27296181 -.00000283  00000-0  00000-0 0  9996
2 33274   0.0196 214.5500 0001630  16.3780   9.6714  1.00272291 73718
AMC-21                  
1 33275U 08038B   17261.95743675  .00000004  00000-0  00000-0 0  9996
2 33275   0.0137 149.2386 0002684  54.6310  13.9678  1.00271026 33475
INMARSAT 4-F3           
1 33278U 08039A   17261.94285640 -.00000168  00000-0  00000-0 0  9994
2 33278   3.0248   2.3257 0002831 184.1161  53.0586  1.00271795 14562
NIMIQ 4                 
1 33373U 08044A   17262.17909397 -.00000252  00000-0  00000-0 0  9998
2 33373   0.0273 152.2683 0002419  46.9052 141.6028  1.00266541 32958
GALAXY 19 (G-19)        
1 33376U 08045A   17262.27393623 -.00000171  00000-0  00000+0 0  9991
2 33376   0.0084 192.2589 0002987 356.4336 171.3043  1.00272033 32820
VENESAT-1               
1 33414U 08055A   17262.49855101 -.00000269  00000-0  00000+0 0  9991
2 33414   0.0315  69.0164 0002694 150.6049 240.4239  1.00270480 32537
ASTRA 1M                
1 33436U 08057A   17262.06296010  .00000087  00000-0  00000-0 0  9996
2 33436   0.0101 140.4965 0004853  18.9994 240.5242  1.00270436 13727
CIEL-2                  
1 33453U 08063A   17261.95743675  .00000026  00000-0  00000-0 0  9996
2 33453   0.0429 283.7835 0003047 268.4912  21.6064  1.00271960 32142
EUTELSAT HOT BIRD 13C   
1 33459U 08065A   17261.96935708  .00000054  00000-0  00000-0 0  9996
2 33459   0.0214 349.4255 0004411 173.6647 196.9245  1.00269904 15349
EUTELSAT 48D            
1 33460U 08065B   17262.01438223  .00000092  00000-0  00000-0 0  9997
2 33460   0.0593 340.0360 0002375 219.0136 212.3272  1.00271838 31991
FENGYUN 2E              
1 33463U 08066A   17262.07888938 -.00000233  00000-0  00000-0 0  9997
2 33463   2.3554  67.7089 0005061 216.3565 189.2262  1.00275705 32076
EXPRESS-AM44            
1 33595U 09007A   17262.14459882 -.00000121  00000-0  00000-0 0  9995
2 33595   0.0400 308.6877 0000477 311.6447 138.9592  1.00271640 31545
NSS-9                   
1 33749U 09008A   17262.20990890  .00000039  00000-0  00000-0 0  9990
2 33749   0.0276 300.3295 0001956 227.1024  89.4935  1.00271049 31505
EUTELSAT 33E            
1 33750U 09008B   17261.96785444  .00000123  00000-0  00000-0 0  9995
2 33750   0.0465 334.1931 0005279 224.3400 181.0789  1.00275689 31430
TELSTAR 11N             
1 34111U 09009A   17262.14393562 -.00000283  00000-0  00000-0 0  9993
2 34111   0.0260 171.4876 0002458 336.1481 224.8477  1.00267467 14225
EUTELSAT 10A            
1 34710U 09016A   17262.09285698  .00000036  00000-0  00000-0 0  9995
2 34710   0.0684  18.2419 0005028 164.4255 218.9574  1.00273969  9239
SES-7 (PROTOSTAR 2)     
1 34941U 09027A   17262.37794705 -.00000377  00000-0  00000+0 0  9996
2 34941   0.0488  86.8426 0002244 157.7430 358.2163  1.00272642 30607
MEASAT-3A               
1 35362U 09032A   17261.75175469 -.00000275  00000-0  00000-0 0  9999
2 35362   0.0394 218.2078 0002707 345.2316 156.5497  1.00273220 30226
GOES 14                 
1 35491U 09033A   17261.29721265 -.00000126  00000-0  00000-0 0  9998
2 35491   0.3552 274.3188 0009874 303.4553 142.1574  1.00273612 30136
SIRIUS FM-5             
1 35493U 09034A   17262.18063448 -.00000232  00000-0  00000-0 0  9990
2 35493   0.0215 268.7625 0000774 107.7647 320.6348  1.00271154 14710
TERRESTAR-1             
1 35496U 09035A   17261.27783604 -.00000088  00000-0  00000+0 0  9994
2 35496   2.8251 346.3529 0003072 194.3759 165.6570  1.00272196 30134
ASIASAT 5               
1 35696U 09042A   17262.36438221 -.00000339  00000-0  00000+0 0  9996
2 35696   0.0316 120.9181 0001100  38.1660  71.0505  1.00270481 29652
JCSAT-RA (JCSAT-12)     
1 35755U 09044A   17261.65082828 -.00000378  00000-0  00000+0 0  9996
2 35755   0.0623  61.4283 0001014 117.7161 180.8571  1.00271950 29648
OPTUS D3                
1 35756U 09044B   17261.90674251 -.00000179  00000-0  00000+0 0  9991
2 35756   0.0515 353.2086 0002196 184.1581 303.0765  1.00272247 29619
PALAPA D                
1 35812U 09046A   17261.69230959 -.00000391  00000-0  00000-0 0  9992
2 35812   0.0125 106.5446 0001931 112.3971 141.0457  1.00271203 29664
NIMIQ 5                 
1 35873U 09050A   17262.23240705 -.00000289  00000-0  00000-0 0  9991
2 35873   0.0185 242.2851 0001799 301.1795 185.8437  1.00271502 29340
AMAZONAS 2              
1 35942U 09054A   17261.37198766 -.00000315  00000-0  00000-0 0  9995
2 35942   0.0345 134.2113 0004858  33.2482 262.9474  1.00270807 29166
COMSATBW-1              
1 35943U 09054B   17261.92059922 -.00000008  00000-0  00000-0 0  9996
2 35943   0.0436  92.1458 0001806 110.2456 190.0480  1.00270484 29281
NSS-12                  
1 36032U 09058A   17261.84736584  .00000039  00000-0  00000-0 0  9990
2 36032   0.0177 273.4998 0002545 269.5113 176.9889  1.00271184 28918
THOR 6                  
1 36033U 09058B   17262.06782019 -.00000042  00000-0  00000-0 0  9995
2 36033   0.0107 171.6315 0001581   2.3470 207.7589  1.00271167 29015
INTELSAT 14 (IS-14)     
1 36097U 09064A   17262.12994386 -.00000306  00000-0  00000+0 0  9993
2 36097   0.0236 165.8394 0002137  19.7212 174.4371  1.00268780 28693
EUTELSAT 36B            
1 36101U 09065A   17262.05271612  .00000123  00000-0  00000-0 0  9999
2 36101   0.0699  15.1533 0004007 173.4480 224.4440  1.00274843 28709
INTELSAT 15 (IS-15)     
1 36106U 09067A   17262.22688407 -.00000217  00000-0  00000+0 0  9993
2 36106   0.0176 104.8130 0002090  85.8208 334.5209  1.00272148 28585
DIRECTV 12              
1 36131U 09075A   17261.94771538 -.00000135  00000-0  00000-0 0  9996
2 36131   0.0400 319.4272 0000193 304.7663 332.2332  1.00272248 14571
BEIDOU G1               
1 36287U 10001A   17262.21886465 -.00000314  00000-0  00000-0 0  9995
2 36287   1.4760   5.8309 0003872 180.5643  30.7462  1.00269660 28156
RADUGA-1M 2             
1 36358U 10002A   17262.36924432 -.00000215  00000-0  00000+0 0  9997
2 36358   0.0228 247.1381 0002316 352.1730 337.0648  1.00270386 27993
SDO                     
1 36395U 10005A   17259.48218458 -.00000099  00000-0  00000-0 0  9995
2 36395  28.8625 138.7973 0001259  75.4078 212.9908  1.00275122 27982
INTELSAT 16 (IS-16)     
1 36397U 10006A   17262.21053196 -.00000317  00000-0  00000+0 0  9991
2 36397   0.0247 166.5600 0001412  17.4696 191.9646  1.00268852 27724
GOES 15                 
1 36411U 10008A   17261.38283920  .00000057  00000-0  00000-0 0  9998
2 36411   0.3276 276.2112 0004758 263.0284 180.7616  1.00267108 27671
ECHOSTAR 14             
1 36499U 10010A   17261.95257479 -.00000032  00000-0  00000-0 0  9994
2 36499   0.0252 180.0458 0002817 347.1230  54.9106  1.00270981 14565
SES-1                   
1 36516U 10016A   17262.23808657 -.00000146  00000-0  00000-0 0  9998
2 36516   0.0138 192.8417 0001660 342.0734 168.1184  1.00269035 27030
ASTRA 3B                
1 36581U 10021A   17262.06296010  .00000105  00000-0  00000-0 0  9995
2 36581   0.0560 315.5007 0002994 225.0205 223.7957  1.00270250 26850
COMSATBW-2              
1 36582U 10021B   17262.06296010  .00000057  00000-0  00000-0 0  9992
2 36582   0.0133 207.0334 0001764 356.1795 190.8432  1.00274995 26974
